{"fetched_at":"2026-07-18T06:28:12.370Z","source":"https://celestrak.org/NORAD/elements/gp.php?NAME=ICEYE&FORMAT=JSON","constellation":"iceye","records":[{"OBJECT_NAME":"ICEYE-X40","OBJECT_ID":"2024-149CK","EPOCH":"2026-07-17T15:04:55.488864","CLASSIFICATION_TYPE":"U","MEAN_MOTION":14.98081367,"ECCENTRICITY":0.0004536,"INCLINATION":97.68,"RA_OF_ASC_NODE":274.6351,"ARG_OF_PERICENTER":359.1312,"MEAN_ANOMALY":0.9902,"EPHEMERIS_TYPE":0,"NORAD_CAT_ID":60549,"ELEMENT_SET_NO":999,"REV_AT_EPOCH":10463,"BSTAR":0.00013034,"MEAN_MOTION_DOT":0.00001484,"MEAN_MOTION_DDOT":0},{"OBJECT_NAME":"ICEYE-X49","OBJECT_ID":"2024-247H","EPOCH":"2026-07-17T08:01:48.831744","CLASSIFICATION_TYPE":"U","MEAN_MOTION":15.13466886,"ECCENTRICITY":0.00013347,"INCLINATION":44.9994,"RA_OF_ASC_NODE":196.3565,"ARG_OF_PERICENTER":239.0218,"MEAN_ANOMALY":121.0529,"EPHEMERIS_TYPE":0,"NORAD_CAT_ID":62384,"ELEMENT_SET_NO":999,"REV_AT_EPOCH":8674,"BSTAR":0.00009597161,"MEAN_MOTION_DOT":0.00001489,"MEAN_MOTION_DDOT":0},{"OBJECT_NAME":"ICEYE-X47","OBJECT_ID":"2024-247N","EPOCH":"2026-07-17T23:17:35.810304","CLASSIFICATION_TYPE":"U","MEAN_MOTION":15.13491295,"ECCENTRICITY":0.00011301,"INCLINATION":44.996,"RA_OF_ASC_NODE":192.5541,"ARG_OF_PERICENTER":5.4918,"MEAN_ANOMALY":354.5972,"EPHEMERIS_TYPE":0,"NORAD_CAT_ID":62389,"ELEMENT_SET_NO":999,"REV_AT_EPOCH":8684,"BSTAR":0.000066918123,"MEAN_MOTION_DOT":0.00000961,"MEAN_MOTION_DDOT":0},{"OBJECT_NAME":"ICEYE-X42","OBJECT_ID":"2025-009CT","EPOCH":"2026-07-17T19:00:30.474432","CLASSIFICATION_TYPE":"U","MEAN_MOTION":14.91825442,"ECCENTRICITY":0.00013026,"INCLINATION":97.7389,"RA_OF_ASC_NODE":276.5545,"ARG_OF_PERICENTER":96.3806,"MEAN_ANOMALY":263.7561,"EPHEMERIS_TYPE":0,"NORAD_CAT_ID":62698,"ELEMENT_SET_NO":999,"REV_AT_EPOCH":8185,"BSTAR":0.000074016789,"MEAN_MOTION_DOT":0.00000692,"MEAN_MOTION_DDOT":0},{"OBJECT_NAME":"ICEYE-X41","OBJECT_ID":"2025-009CV","EPOCH":"2026-07-17T11:40:21.821952","CLASSIFICATION_TYPE":"U","MEAN_MOTION":14.96919985,"ECCENTRICITY":0.0000279,"INCLINATION":97.7059,"RA_OF_ASC_NODE":277.5733,"ARG_OF_PERICENTER":224.1417,"MEAN_ANOMALY":135.9782,"EPHEMERIS_TYPE":0,"NORAD_CAT_ID":62700,"ELEMENT_SET_NO":999,"REV_AT_EPOCH":8194,"BSTAR":0.00014395,"MEAN_MOTION_DOT":0.00001595,"MEAN_MOTION_DDOT":0},{"OBJECT_NAME":"ICEYE-X45","OBJECT_ID":"2025-009DA","EPOCH":"2026-07-17T19:09:13.770720","CLASSIFICATION_TYPE":"U","MEAN_MOTION":15.0084695,"ECCENTRICITY":0.00010121,"INCLINATION":97.8417,"RA_OF_ASC_NODE":285.739,"ARG_OF_PERICENTER":72.3019,"MEAN_ANOMALY":287.8315,"EPHEMERIS_TYPE":0,"NORAD_CAT_ID":62705,"ELEMENT_SET_NO":999,"REV_AT_EPOCH":8227,"BSTAR":0.00021587323,"MEAN_MOTION_DOT":0.00002683,"MEAN_MOTION_DDOT":0},{"OBJECT_NAME":"ICEYE-X44","OBJECT_ID":"2025-009DC","EPOCH":"2026-07-17T18:49:13.102752","CLASSIFICATION_TYPE":"U","MEAN_MOTION":14.96175356,"ECCENTRICITY":0.00023729,"INCLINATION":97.7058,"RA_OF_ASC_NODE":277.4277,"ARG_OF_PERICENTER":67.2614,"MEAN_ANOMALY":292.8858,"EPHEMERIS_TYPE":0,"NORAD_CAT_ID":62707,"ELEMENT_SET_NO":999,"REV_AT_EPOCH":10451,"BSTAR":0.00011708342,"MEAN_MOTION_DOT":0.00001262,"MEAN_MOTION_DDOT":0},{"OBJECT_NAME":"ICEYE-X48","OBJECT_ID":"2025-052AV","EPOCH":"2026-07-17T15:33:32.407200","CLASSIFICATION_TYPE":"U","MEAN_MOTION":14.98135134,"ECCENTRICITY":0.0004205,"INCLINATION":97.6839,"RA_OF_ASC_NODE":90.3675,"ARG_OF_PERICENTER":98.4124,"MEAN_ANOMALY":261.7575,"EPHEMERIS_TYPE":0,"NORAD_CAT_ID":63253,"ELEMENT_SET_NO":999,"REV_AT_EPOCH":7323,"BSTAR":0.0001623,"MEAN_MOTION_DOT":0.00001865,"MEAN_MOTION_DDOT":0},{"OBJECT_NAME":"ICEYE-X50","OBJECT_ID":"2025-052AX","EPOCH":"2026-07-17T22:32:46.383936","CLASSIFICATION_TYPE":"U","MEAN_MOTION":14.95369171,"ECCENTRICITY":0.00034279,"INCLINATION":97.6853,"RA_OF_ASC_NODE":90.2397,"ARG_OF_PERICENTER":96.3421,"MEAN_ANOMALY":263.8191,"EPHEMERIS_TYPE":0,"NORAD_CAT_ID":63255,"ELEMENT_SET_NO":999,"REV_AT_EPOCH":7324,"BSTAR":0.000037899271,"MEAN_MOTION_DOT":0.00000362,"MEAN_MOTION_DDOT":0},{"OBJECT_NAME":"ICEYE-X51","OBJECT_ID":"2025-052AZ","EPOCH":"2026-07-17T22:12:51.072768","CLASSIFICATION_TYPE":"U","MEAN_MOTION":15.00883042,"ECCENTRICITY":0.00020589,"INCLINATION":97.7614,"RA_OF_ASC_NODE":93.9676,"ARG_OF_PERICENTER":65.5158,"MEAN_ANOMALY":294.628,"EPHEMERIS_TYPE":0,"NORAD_CAT_ID":63257,"ELEMENT_SET_NO":999,"REV_AT_EPOCH":7341,"BSTAR":0.00019540718,"MEAN_MOTION_DOT":0.00002426,"MEAN_MOTION_DDOT":0},{"OBJECT_NAME":"ICEYE-X46","OBJECT_ID":"2025-052BA","EPOCH":"2026-07-17T22:28:03.097344","CLASSIFICATION_TYPE":"U","MEAN_MOTION":14.95371857,"ECCENTRICITY":0.00016445,"INCLINATION":97.6856,"RA_OF_ASC_NODE":90.2357,"ARG_OF_PERICENTER":80.7874,"MEAN_ANOMALY":279.3533,"EPHEMERIS_TYPE":0,"NORAD_CAT_ID":63258,"ELEMENT_SET_NO":999,"REV_AT_EPOCH":7324,"BSTAR":0.000054601704,"MEAN_MOTION_DOT":0.00000546,"MEAN_MOTION_DDOT":0},{"OBJECT_NAME":"ICEYE-X54","OBJECT_ID":"2025-135AU","EPOCH":"2026-07-17T22:53:34.227168","CLASSIFICATION_TYPE":"U","MEAN_MOTION":14.94740422,"ECCENTRICITY":0.00022456,"INCLINATION":97.7748,"RA_OF_ASC_NODE":313.084,"ARG_OF_PERICENTER":173.7874,"MEAN_ANOMALY":186.3375,"EPHEMERIS_TYPE":0,"NORAD_CAT_ID":64570,"ELEMENT_SET_NO":999,"REV_AT_EPOCH":5849,"BSTAR":0.00011511277,"MEAN_MOTION_DOT":0.00001193,"MEAN_MOTION_DDOT":0},{"OBJECT_NAME":"ICEYE-X52","OBJECT_ID":"2025-135AW","EPOCH":"2026-07-17T22:53:21.579936","CLASSIFICATION_TYPE":"U","MEAN_MOTION":14.9365821,"ECCENTRICITY":0.00014551,"INCLINATION":97.777,"RA_OF_ASC_NODE":312.8694,"ARG_OF_PERICENTER":179.2021,"MEAN_ANOMALY":180.9201,"EPHEMERIS_TYPE":0,"NORAD_CAT_ID":64572,"ELEMENT_SET_NO":999,"REV_AT_EPOCH":5847,"BSTAR":0.000075740706,"MEAN_MOTION_DOT":0.00000744,"MEAN_MOTION_DDOT":0},{"OBJECT_NAME":"ICEYE-X56","OBJECT_ID":"2025-135AY","EPOCH":"2026-07-17T22:32:44.187648","CLASSIFICATION_TYPE":"U","MEAN_MOTION":14.95773362,"ECCENTRICITY":0.00015679,"INCLINATION":97.7771,"RA_OF_ASC_NODE":313.6628,"ARG_OF_PERICENTER":178.3456,"MEAN_ANOMALY":181.777,"EPHEMERIS_TYPE":0,"NORAD_CAT_ID":64574,"ELEMENT_SET_NO":999,"REV_AT_EPOCH":5852,"BSTAR":0.00018345291,"MEAN_MOTION_DOT":0.00001988,"MEAN_MOTION_DDOT":0},{"OBJECT_NAME":"ICEYE-X57","OBJECT_ID":"2025-135BC","EPOCH":"2026-07-17T22:26:04.428672","CLASSIFICATION_TYPE":"U","MEAN_MOTION":15.00863194,"ECCENTRICITY":0.00021213,"INCLINATION":97.803,"RA_OF_ASC_NODE":315.5003,"ARG_OF_PERICENTER":57.8364,"MEAN_ANOMALY":302.3065,"EPHEMERIS_TYPE":0,"NORAD_CAT_ID":64578,"ELEMENT_SET_NO":999,"REV_AT_EPOCH":5863,"BSTAR":0.00019519245,"MEAN_MOTION_DOT":0.00002421,"MEAN_MOTION_DDOT":0},{"OBJECT_NAME":"ICEYE-X55","OBJECT_ID":"2025-135BF","EPOCH":"2026-07-17T22:44:31.884864","CLASSIFICATION_TYPE":"U","MEAN_MOTION":14.95372517,"ECCENTRICITY":0.00020135,"INCLINATION":97.7769,"RA_OF_ASC_NODE":313.4949,"ARG_OF_PERICENTER":221.2715,"MEAN_ANOMALY":138.8353,"EPHEMERIS_TYPE":0,"NORAD_CAT_ID":64581,"ELEMENT_SET_NO":999,"REV_AT_EPOCH":5851,"BSTAR":0.00015139195,"MEAN_MOTION_DOT":0.00001613,"MEAN_MOTION_DDOT":0}]}
