ICEYE-X40               
1 60549U 24149CK  26198.62842001  .00001484  00000+0  13034-3 0  9993
2 60549  97.6800 274.6351 0004536 359.1312   0.9902 14.98081367104637
ICEYE-X49               
1 62384U 24247H   26198.33459296  .00001489  00000+0  95972-4 0  9996
2 62384  44.9994 196.3565 0001334 239.0218 121.0529 15.13466886 86748
ICEYE-X47               
1 62389U 24247N   26198.97055336  .00000961  00000+0  66918-4 0  9990
2 62389  44.9960 192.5541 0001130   5.4918 354.5972 15.13491295 86842
ICEYE-X42               
1 62698U 25009CT  26198.79201938  .00000692  00000+0  74017-4 0  9991
2 62698  97.7389 276.5545 0001302  96.3806 263.7561 14.91825442 81850
ICEYE-X41               
1 62700U 25009CV  26198.48636368  .00001595  00000+0  14395-3 0  9995
2 62700  97.7059 277.5733 0000279 224.1417 135.9782 14.96919985 81945
ICEYE-X45               
1 62705U 25009DA  26198.79807605  .00002683  00000+0  21587-3 0  9998
2 62705  97.8417 285.7390 0001012  72.3019 287.8315 15.00846950 82279
ICEYE-X44               
1 62707U 25009DC  26198.78417943  .00001262  00000+0  11708-3 0  9997
2 62707  97.7058 277.4277 0002372  67.2614 292.8858 14.96175356104516
ICEYE-X48               
1 63253U 25052AV  26198.64829175  .00001865  00000+0  16230-3 0  9995
2 63253  97.6839  90.3675 0004205  98.4124 261.7575 14.98135134 73239
ICEYE-X50               
1 63255U 25052AX  26198.93942574  .00000362  00000+0  37899-4 0  9994
2 63255  97.6853  90.2397 0003427  96.3421 263.8191 14.95369171 73244
ICEYE-X51               
1 63257U 25052AZ  26198.92559112  .00002426  00000+0  19541-3 0  9993
2 63257  97.7614  93.9676 0002058  65.5158 294.6280 15.00883042 73411
ICEYE-X46               
1 63258U 25052BA  26198.93614696  .00000546  00000+0  54602-4 0  9993
2 63258  97.6856  90.2357 0001644  80.7874 279.3533 14.95371857 73240
ICEYE-X54               
1 64570U 25135AU  26198.95386837  .00001193  00000+0  11511-3 0  9998
2 64570  97.7748 313.0840 0002245 173.7874 186.3375 14.94740422 58491
ICEYE-X52               
1 64572U 25135AW  26198.95372199  .00000744  00000+0  75741-4 0  9993
2 64572  97.7770 312.8694 0001455 179.2021 180.9201 14.93658210 58477
ICEYE-X56               
1 64574U 25135AY  26198.93940032  .00001988  00000+0  18345-3 0  9997
2 64574  97.7771 313.6628 0001567 178.3456 181.7770 14.95773362 58526
ICEYE-X57               
1 64578U 25135BC  26198.93477348  .00002421  00000+0  19519-3 0  9993
2 64578  97.8030 315.5003 0002121  57.8364 302.3065 15.00863194 58633
ICEYE-X55               
1 64581U 25135BF  26198.94759126  .00001613  00000+0  15139-3 0  9991
2 64581  97.7769 313.4949 0002013 221.2715 138.8353 14.95372517 58514
